STARLINK-30924          
1 58412U 23180L   25184.41478723  .00001335  00000+0  60852-4 0  9996
2 58412  42.9991 234.7561 0001670 269.3896  90.6764 15.25910093 91211
STARLINK-30931          
1 58413U 23180M   25184.42069875  .00001861  00000+0  15279-3 0  9998
2 58413  43.0045 318.0556 0001234 267.5959  92.4742 15.02541362 90231
STARLINK-30922          
1 58414U 23180N   25184.45803169  .00000337  00000+0  40010-4 0  9993
2 58414  43.0031 330.3157 0001149 272.4165  87.6546 15.02533420 90098
STARLINK-30949          
1 58415U 23180P   25184.39487922 -.00002250  00000+0 -15156-3 0  9992
2 58415  43.0036 330.6910 0001036 280.0650  80.0075 15.02539852 90081
STARLINK-30967          
1 58416U 23180Q   25184.46468957  .00000181  00000+0  28497-4 0  9990
2 58416  43.0077 330.3688 0001513 267.5729  92.4941 15.02534763 90099
STARLINK-30955          
1 58417U 23180R   25184.43805447  .00000027  00000+0  17071-4 0  9992
2 58417  43.0032 330.1677 0001144 269.1531  90.9181 15.02532094 90090
STARLINK-30895          
1 58418U 23180S   25184.45137023  .00000955  00000+0  85731-4 0  9991
2 58418  43.0045 330.2788 0001199 255.8536 104.2174 15.02537351 89984
STARLINK-30917          
1 58419U 23180T   25184.54694300 -.00002106  00000+0 -67064-4 0  9999
2 58419  43.0009 270.7788 0000845 255.5628 104.5130 15.27564843 90798
STARLINK-30899          
1 58420U 23180U   25184.37823845 -.00000233  00000+0 -21427-5 0  9993
2 58420  43.0044 330.5925 0001305 269.4363  90.6330 15.02531953 89973
STARLINK-30902          
1 58421U 23180V   25184.42473391  .00000069  00000+0  20158-4 0  9991
2 58421  43.0036 330.0745 0001182 269.8691  90.2016 15.02533553 89987
STARLINK-30912          
1 58422U 23180W   25184.47523375  .00005044  00000+0  19274-3 0  9999
2 58422  43.0025 237.7332 0001476 266.3811  93.6871 15.27575159 91189
STARLINK-30900          
1 58423U 23180X   25184.45469570 -.00000428  00000+0 -16600-4 0  9998
2 58423  43.0040 330.2574 0001226 263.5077  96.5626 15.02534099 89986
STARLINK-30908          
1 58424U 23180Y   25184.37021176 -.00000040  00000+0  12131-4 0  9990
2 58424  43.0034 329.5858 0001222 270.0788  89.9914 15.02533238 90098
STARLINK-30869          
1 58437U 23183A   25184.40183075 -.00002516  00000+0 -17121-3 0  9992
2 58437  43.0049 317.9924 0001417 264.9168  95.1512 15.02545836 89215
STARLINK-30969          
1 58438U 23183B   25184.40516413  .00000043  00000+0  18266-4 0  9992
2 58438  43.0046 318.0199 0001222 269.2293  90.8410 15.02532783 89216
STARLINK-30951          
1 58439U 23183C   25184.39850376  .00000361  00000+0  41762-4 0  9990
2 58439  43.0034 317.9688 0001115 268.5635  91.5080 15.02534036 89212
STARLINK-30950          
1 58440U 23183D   25184.04752707  .00000320  00000+0  21172-4 0  9991
2 58440  43.0016 174.9732 0001552 278.6517  81.4159 15.27576178 90858
STARLINK-30942          
1 58441U 23183E   25184.38185500 -.00000125  00000+0  57989-5 0  9990
2 58441  43.0042 317.8442 0000942 266.9514  93.1220 15.02533515 89211
STARLINK-30959          
1 58442U 23183F   25184.64109975  .00001161  00000+0  10102-3 0  9996
2 58442  43.0018 316.3480 0001201 260.6731  99.3975 15.02538066 89257
STARLINK-30971          
1 58443U 23183G   25184.38518418 -.00000220  00000+0 -12217-5 0  9992
2 58443  43.0040 317.8631 0001257 260.5652  99.5048 15.02534740 89213
STARLINK-30963          
1 58444U 23183H   25184.63777559 -.00000384  00000+0 -13377-4 0  9992
2 58444  43.0043 316.3175 0001305 265.1501  94.9193 15.02540897 89256
STARLINK-30961          
1 58445U 23183J   25184.63444033  .00000854  00000+0  78237-4 0  9997
2 58445  43.0034 316.2958 0001129 276.7602  83.3112 15.02542370 89250
STARLINK-30975          
1 58446U 23183K   25184.34978118  .00000371  00000+0  42523-4 0  9995
2 58446  43.0033 318.4464 0001214 272.3744  87.6959 15.02535381 89227
STARLINK-30976          
1 58447U 23183L   25184.42502445  .00000787  00000+0  73325-4 0  9996
2 58447  43.0050 317.3381 0001912 255.3037 104.7593 15.02536107 89226
STARLINK-30926          
1 58448U 23183M   25184.42168646  .00000267  00000+0  34863-4 0  9995
2 58448  43.0007 317.2408 0001197 267.6433  92.4272 15.02536457 89224
STARLINK-30943          
1 58449U 23183N   25184.02345311 -.00000410  00000+0 -15287-4 0  9999
2 58449  43.0037 294.2674 0001380 270.0085  90.0599 15.02535359 89453
STARLINK-30946          
1 58450U 23183P   25184.40848991  .00000682  00000+0  65547-4 0  9998
2 58450  43.0039 318.0440 0001392 270.0858  89.9825 15.02535431 89218
STARLINK-30944          
1 58451U 23183Q   25184.63111286  .00001036  00000+0  91755-4 0  9998
2 58451  43.0036 316.2750 0001335 268.5545  91.5144 15.02536041 89224
STARLINK-30928          
1 58452U 23183R   25184.62778666  .00000588  00000+0  58576-4 0  9994
2 58452  43.0033 316.2497 0001304 271.3863  88.6830 15.02534562 89259
STARLINK-30957          
1 58453U 23183S   25184.41514936 -.00001924  00000+0 -12737-3 0  9995
2 58453  43.0024 318.0873 0001280 261.0243  99.0454 15.02546629 89210
STARLINK-30966          
1 58454U 23183T   25184.41182443 -.00000108  00000+0  71124-5 0  9999
2 58454  43.0018 318.0624 0001203 275.9527  84.1178 15.02532639 89216
STARLINK-30935          
1 58455U 23183U   25184.05945586 -.00000580  00000+0 -27848-4 0  9993
2 58455  43.0042 319.7173 0001315 261.8487  98.2206 15.02532959 89161
STARLINK-30960          
1 58456U 23183V   25184.59194826  .00000698  00000+0  34863-4 0  9999
2 58456  43.0008 287.9532 0000845 238.8175 121.2594 15.27595821 89581
STARLINK-30958          
1 58457U 23183W   25184.64220925  .00001035  00000+0  91656-4 0  9995
2 58457  43.0031 316.3561 0001259 268.5044  91.5654 15.02542161 89254
STARLINK-30962          
1 58458U 23183X   25184.41836373  .00000117  00000+0  23734-4 0  9993
2 58458  43.0055 317.2595 0001349 269.7480  90.3208 15.02535265 89221
STARLINK-30977          
1 58459U 23183Y   25184.38851357 -.00000552  00000+0 -25803-4 0  9993
2 58459  43.0018 317.8834 0001221 261.7475  98.3229 15.02534502 89211
STARLINK-30947          
1 58473U 23186A   25184.50289745 -.00000057  00000+0  10867-4 0  9995
2 58473  43.0057 341.7831 0001335 264.0000  96.0691 15.02534628 88361
STARLINK-30995          
1 58474U 23186B   25184.38321931 -.00000664  00000+0 -14603-4 0  9993
2 58474  43.0003 217.2593 0001240 272.4923  87.5786 15.27574163 89947
STARLINK-30941          
1 58475U 23186C   25184.49623980 -.00000083  00000+0  89122-5 0  9998
2 58475  43.0045 341.7330 0001303 263.5067  96.5627 15.02533894 88364
STARLINK-30980          
1 58476U 23186D   25184.49290805  .00001029  00000+0  91273-4 0  9994
2 58476  43.0036 341.7087 0001358 261.0763  98.9925 15.02526514 88368
STARLINK-30965          
1 58477U 23186E   25184.41225896  .00000375  00000+0  42857-4 0  9992
2 58477  43.0048 328.9506 0001606 263.4095  96.6565 15.02532889 88508
STARLINK-30990          
1 58478U 23186F   25184.42310467 -.00003212  00000+0 -22284-3 0  9999
2 58478  43.0052 342.0440 0001242 262.5277  97.5424 15.02529003 88391
STARLINK-30984          
1 58480U 23186H   25184.50945742 -.00000434  00000+0 -17068-4 0  9999
2 58480  43.0047 340.9652 0001376 273.2151  86.8534 15.02521997 88373
STARLINK-30956          
1 58481U 23186J   25184.39288088  .00000156  00000+0  26637-4 0  9991
2 58481  43.0033 317.3960 0001207 269.2215  90.8489 15.02534319 88633
STARLINK-30997          
1 58482U 23186K   25184.12721455 -.00001322  00000+0 -82864-4 0  9995
2 58482  43.0049 343.2316 0001299 265.9722  94.0972 15.02525658 88315
STARLINK-30994          
1 58483U 23186L   25184.40198502  .00002706  00000+0  11323-3 0  9994
2 58483  43.0044 227.6040 0002696 279.3387  80.7159 15.25923237 89688
STARLINK-30991          
1 58484U 23186M   25184.43963524 -.00000243  00000+0 -29094-5 0  9994
2 58484  43.0060 341.3002 0001444 270.8527  89.2150 15.02533169 88355
STARLINK-30979          
1 58485U 23186N   25184.48291689 -.00000071  00000+0  98357-5 0  9992
2 58485  43.0032 341.6308 0001260 265.3287  94.7411 15.02539328 88359
STARLINK-31005          
1 58486U 23186P   25184.47958930  .00000146  00000+0  25901-4 0  9997
2 58486  43.0042 341.6072 0001348 265.4111  94.6578 15.02532390 88358
STARLINK-30987          
1 58487U 23186Q   25184.47626320 -.00000166  00000+0  27924-5 0  9994
2 58487  43.0026 341.5804 0001026 267.2731  92.7994 15.02531603 88351
STARLINK-31000          
1 58488U 23186R   25184.40645190  .00000379  00000+0  43141-4 0  9997
2 58488  43.0037 341.9169 0001175 264.0617  96.0091 15.02535650 88345
STARLINK-30993          
1 58489U 23186S   25184.46960272 -.00000722  00000+0 -38370-4 0  9997
2 58489  43.0040 341.5294 0001424 269.1095  90.9585 15.02529972 88350
STARLINK-30978          
1 58490U 23186T   25184.13387758  .00000521  00000+0  53640-4 0  9997
2 58490  43.0050 343.3108 0001387 266.4325  93.6359 15.02535705 88306
STARLINK-30953          
1 58491U 23186U   25184.19762117  .00000291  00000+0  20127-4 0  9998
2 58491  43.0057 236.5004 0001613 279.8190  80.2479 15.27569074 89738
STARLINK-30986          
1 58492U 23186V   25184.45628428 -.00000881  00000+0 -50111-4 0  9997
2 58492  43.0053 341.4284 0001661 271.2727  88.7925 15.02538865 88359
STARLINK-30985          
1 58493U 23186W   25184.45295088 -.00000506  00000+0 -22367-4 0  9996
2 58493  43.0045 341.4052 0001396 262.2914  97.7770 15.02541792 88358
STARLINK-30981          
1 58494U 23186X   25183.78484059  .00000261  00000+0  34399-4 0  9994
2 58494  43.0046 344.9902 0001249 270.0653  90.0046 15.02536831 88255
STARLINK-31002          
1 58495U 23186Y   25184.44629218  .00000148  00000+0  26060-4 0  9997
2 58495  43.0041 341.3541 0001391 266.3484  93.7199 15.02535049 88528
STARLINK-31026          
1 58508U 23191A   25184.56322841  .00000511  00000+0  52917-4 0  9997
2 58508  43.0047  20.7452 0001152 266.8990  93.1720 15.02535517 87950
